start=new Date('2022-01-20T00:00:00.000Z').valueOf();
sats=[{"ELEMENT_SET_NO":"999","REF_FRAME":"TEME","RCS_SIZE":"LARGE","EPOCH":"2022-01-19T14:00:01.000224","OBJECT_TYPE":"PAYLOAD","FILE":"3277432","TIME_SYSTEM":"UTC","ARG_OF_PERICENTER":"91.0101","TLE_LINE2":"2 48431  53.0549  90.7421 0001391  91.0101  88.6289 15.06391597  3580","PERIAPSIS":"546.276","SITE":"AFETR","INCLINATION":"53.0549","COUNTRY_CODE":"US","ECCENTRICITY":"0.00013910","EPHEMERIS_TYPE":"0","BSTAR":"0.00242080000000","SEMIMAJOR_AXIS":"6925.374","RA_OF_ASC_NODE":"90.7421","GP_ID":"194191719","DECAY_DATE":null,"MEAN_MOTION":"15.06391597","NORAD_CAT_ID":"48431","TLE_LINE1":"1 48431U 21040D   22019.58334491  .00035953  00000-0  24208-2 0  9991","MEAN_ANOMALY":"88.6289","OBJECT_NAME":"STARLINK-2700","APOAPSIS":"548.203","PERIOD":"95.593","CENTER_NAME":"EARTH","MEAN_MOTION_DDOT":"0.0000000000000","MEAN_ELEMENT_THEORY":"SGP4","CLASSIFICATION_TYPE":"U","LAUNCH_DATE":"2021-05-09","REV_AT_EPOCH":"358","OBJECT_ID":"2021-040D","MEAN_MOTION_DOT":"0.00035953"},{"REV_AT_EPOCH":"359","OBJECT_ID":"2021-040E","MEAN_MOTION_DOT":"0.00042949","DECAY_DATE":null,"MEAN_MOTION":"15.06371126","NORAD_CAT_ID":"48432","TLE_LINE1":"1 48432U 21040E   22019.58334491  .00042949  00000-0  28870-2 0  9994","MEAN_ANOMALY":"36.7609","OBJECT_NAME":"STARLINK-2680","APOAPSIS":"548.195","PERIOD":"95.594","CENTER_NAME":"EARTH","MEAN_MOTION_DDOT":"0.0000000000000","MEAN_ELEMENT_THEORY":"SGP4","LAUNCH_DATE":"2021-05-09","CLASSIFICATION_TYPE":"U","INCLINATION":"53.0549","COUNTRY_CODE":"US","ECCENTRICITY":"0.00012890","EPHEMERIS_TYPE":"0","BSTAR":"0.00288700000000","SEMIMAJOR_AXIS":"6925.437","GP_ID":"194191969","RA_OF_ASC_NODE":"85.7496","ELEMENT_SET_NO":"999","REF_FRAME":"TEME","RCS_SIZE":"LARGE","EPOCH":"2022-01-19T14:00:01.000224","OBJECT_TYPE":"PAYLOAD","FILE":"3277432","TIME_SYSTEM":"UTC","ARG_OF_PERICENTER":"90.4205","SITE":"AFETR","TLE_LINE2":"2 48432  53.0549  85.7496 0001289  90.4205  36.7609 15.06371126  3598","PERIAPSIS":"546.409"},{"EPHEMERIS_TYPE":"0","GP_ID":"194193220","RA_OF_ASC_NODE":"90.7422","BSTAR":"0.00262010000000","SEMIMAJOR_AXIS":"6925.383","COUNTRY_CODE":"US","INCLINATION":"53.0545","ECCENTRICITY":"0.00013030","TIME_SYSTEM":"UTC","FILE":"3277432","ARG_OF_PERICENTER":"91.2142","PERIAPSIS":"546.346","TLE_LINE2":"2 48433  53.0545  90.7422 0001303  91.2142 268.4166 15.06388678  3587","SITE":"AFETR","ELEMENT_SET_NO":"999","REF_FRAME":"TEME","EPOCH":"2022-01-19T14:00:01.000224","OBJECT_TYPE":"PAYLOAD","RCS_SIZE":"LARGE","MEAN_MOTION_DOT":"0.00038949","REV_AT_EPOCH":"358","OBJECT_ID":"2021-040F","CENTER_NAME":"EARTH","PERIOD":"95.593","MEAN_MOTION_DDOT":"0.0000000000000","MEAN_ELEMENT_THEORY":"SGP4","LAUNCH_DATE":"2021-05-09","CLASSIFICATION_TYPE":"U","NORAD_CAT_ID":"48433","DECAY_DATE":null,"MEAN_MOTION":"15.06388678","MEAN_ANOMALY":"268.4166","TLE_LINE1":"1 48433U 21040F   22019.58334491  .00038949  00000-0  26201-2 0  9996","OBJECT_NAME":"STARLINK-2699","APOAPSIS":"548.151"},{"LAUNCH_DATE":"2021-05-09","CLASSIFICATION_TYPE":"U","MEAN_ELEMENT_THEORY":"SGP4","MEAN_MOTION_DDOT":"0.0000000000000","CENTER_NAME":"EARTH","PERIOD":"95.592","APOAPSIS":"548.102","TLE_LINE1":"1 48434U 21040G   22019.91667824 -.00017474  00000-0 -11569-2 0  9996","MEAN_ANOMALY":"218.2565","OBJECT_NAME":"STARLINK-2692","MEAN_MOTION":"15.06405313","DECAY_DATE":null,"NORAD_CAT_ID":"48434","OBJECT_ID":"2021-040G","REV_AT_EPOCH":"3987","MEAN_MOTION_DOT":"-0.00017474","PERIAPSIS":"546.293","TLE_LINE2":"2 48434  53.0551  94.2574 0001306 102.6173 218.2565 15.06405313 39879","SITE":"AFETR","ARG_OF_PERICENTER":"102.6173","FILE":"3277764","TIME_SYSTEM":"UTC","RCS_SIZE":"LARGE","OBJECT_TYPE":"PAYLOAD","EPOCH":"2022-01-19T22:00:00.999936","REF_FRAME":"TEME","ELEMENT_SET_NO":"999","SEMIMAJOR_AXIS":"6925.332","BSTAR":"-0.00115690000000","GP_ID":"194198661","RA_OF_ASC_NODE":"94.2574","EPHEMERIS_TYPE":"0","ECCENTRICITY":"0.00013060","INCLINATION":"53.0551","COUNTRY_CODE":"US"},{"FILE":"3277764","TIME_SYSTEM":"UTC","ARG_OF_PERICENTER":"80.3233","SITE":"AFETR","TLE_LINE2":"2 48435  53.0546 105.0313 0001584  80.3233 279.7934 15.04776572 40514","PERIAPSIS":"551.096","ELEMENT_SET_NO":"999","REF_FRAME":"TEME","RCS_SIZE":"LARGE","EPOCH":"2022-01-19T13:50:18.825792","OBJECT_TYPE":"PAYLOAD","EPHEMERIS_TYPE":"0","BSTAR":"0.00083258000000","SEMIMAJOR_AXIS":"6930.329","GP_ID":"194198969","RA_OF_ASC_NODE":"105.0313","INCLINATION":"53.0546","COUNTRY_CODE":"US","ECCENTRICITY":"0.00015840","CENTER_NAME":"EARTH","PERIOD":"95.695","MEAN_MOTION_DDOT":"0.0000000000000","MEAN_ELEMENT_THEORY":"SGP4","LAUNCH_DATE":"2021-05-09","CLASSIFICATION_TYPE":"U","DECAY_DATE":null,"MEAN_MOTION":"15.04776572","NORAD_CAT_ID":"48435","MEAN_ANOMALY":"279.7934","TLE_LINE1":"1 48435U 21040H   22019.57660678  .00011614  00000-0  83258-3 0  9992","OBJECT_NAME":"STARLINK-2633","APOAPSIS":"553.291","REV_AT_EPOCH":"4051","OBJECT_ID":"2021-040H","MEAN_MOTION_DOT":"0.00011614"},{"MEAN_ELEMENT_THEORY":"SGP4","CLASSIFICATION_TYPE":"U","LAUNCH_DATE":"2021-05-09","CENTER_NAME":"EARTH","PERIOD":"95.593","MEAN_MOTION_DDOT":"0.0000000000000","MEAN_ANOMALY":"279.5381","TLE_LINE1":"1 48436U 21040J   22019.57055520  .00004521  00000-0  32226-3 0  9995","OBJECT_NAME":"STARLINK-2639","APOAPSIS":"548.030","NORAD_CAT_ID":"48436","DECAY_DATE":null,"MEAN_MOTION":"15.06393610","MEAN_MOTION_DOT":"0.00004521","REV_AT_EPOCH":"3901","OBJECT_ID":"2021-040J","ARG_OF_PERICENTER":"80.5738","TLE_LINE2":"2 48436  53.0542 120.8010 0001151  80.5738 279.5381 15.06393610 39019","SITE":"AFETR","PERIAPSIS":"546.436","TIME_SYSTEM":"UTC","FILE":"3277432","EPOCH":"2022-01-19T13:41:35.969280","OBJECT_TYPE":"PAYLOAD","RCS_SIZE":"LARGE","ELEMENT_SET_NO":"999","REF_FRAME":"TEME","GP_ID":"194192469","RA_OF_ASC_NODE":"120.8010","BSTAR":"0.00032226000000","SEMIMAJOR_AXIS":"6925.368","EPHEMERIS_TYPE":"0","ECCENTRICITY":"0.00011510","COUNTRY_CODE":"US","INCLINATION":"53.0542"},{"ARG_OF_PERICENTER":"73.4170","SITE":"AFETR","TLE_LINE2":"2 48437  53.0432 131.2212 0001349  73.4170 286.6967 15.06398871 38863","PERIAPSIS":"546.283","TIME_SYSTEM":"UTC","FILE":"3277432","EPOCH":"2022-01-19T11:43:28.361280","OBJECT_TYPE":"PAYLOAD","RCS_SIZE":"LARGE","ELEMENT_SET_NO":"999","REF_FRAME":"TEME","GP_ID":"194192721","RA_OF_ASC_NODE":"131.2212","BSTAR":"0.00026327000000","SEMIMAJOR_AXIS":"6925.352","EPHEMERIS_TYPE":"0","ECCENTRICITY":"0.00013490","COUNTRY_CODE":"US","INCLINATION":"53.0432","MEAN_ELEMENT_THEORY":"SGP4","CLASSIFICATION_TYPE":"U","LAUNCH_DATE":"2021-05-09","PERIOD":"95.592","CENTER_NAME":"EARTH","MEAN_MOTION_DDOT":"0.0000000000000","OBJECT_NAME":"STARLINK-2642","TLE_LINE1":"1 48437U 21040K   22019.48852270  .00003642  00000-0  26327-3 0  9991","MEAN_ANOMALY":"286.6967","APOAPSIS":"548.151","NORAD_CAT_ID":"48437","DECAY_DATE":null,"MEAN_MOTION":"15.06398871","MEAN_MOTION_DOT":"0.00003642","REV_AT_EPOCH":"3886","OBJECT_ID":"2021-040K"},{"LAUNCH_DATE":"2021-05-09","CLASSIFICATION_TYPE":"U","MEAN_ELEMENT_THEORY":"SGP4","MEAN_MOTION_DDOT":"0.0000000000000","PERIOD":"95.592","CENTER_NAME":"EARTH","APOAPSIS":"548.209","TLE_LINE1":"1 48438U 21040L   22019.56685166  .00002544  00000-0  18962-3 0  9995","MEAN_ANOMALY":"281.8758","OBJECT_NAME":"STARLINK-2640","NORAD_CAT_ID":"48438","MEAN_MOTION":"15.06400624","DECAY_DATE":null,"MEAN_MOTION_DOT":"0.00002544","OBJECT_ID":"2021-040L","REV_AT_EPOCH":"3901","TLE_LINE2":"2 48438  53.0553 120.8306 0001440  78.2392 281.8758 15.06400624 39010","SITE":"AFETR","PERIAPSIS":"546.214","ARG_OF_PERICENTER":"78.2392","TIME_SYSTEM":"UTC","FILE":"3277432","OBJECT_TYPE":"PAYLOAD","EPOCH":"2022-01-19T13:36:15.983424","RCS_SIZE":"LARGE","REF_FRAME":"TEME","ELEMENT_SET_NO":"999","RA_OF_ASC_NODE":"120.8306","GP_ID":"194193471","SEMIMAJOR_AXIS":"6925.347","BSTAR":"0.00018962000000","EPHEMERIS_TYPE":"0","ECCENTRICITY":"0.00014400","COUNTRY_CODE":"US","INCLINATION":"53.0553"},{"REV_AT_EPOCH":"3901","OBJECT_ID":"2021-040M","MEAN_MOTION_DOT":"0.00005160","MEAN_ELEMENT_THEORY":"SGP4","CLASSIFICATION_TYPE":"U","LAUNCH_DATE":"2021-05-09","PERIOD":"95.592","CENTER_NAME":"EARTH","MEAN_MOTION_DDOT":"0.0000000000000","MEAN_ANOMALY":"281.3763","TLE_LINE1":"1 48439U 21040M   22019.56317604  .00005160  00000-0  36501-3 0  9991","OBJECT_NAME":"STARLINK-2583","APOAPSIS":"548.189","DECAY_DATE":null,"MEAN_MOTION":"15.06400653","NORAD_CAT_ID":"48439","BSTAR":"0.00036501000000","SEMIMAJOR_AXIS":"6925.347","GP_ID":"194191720","RA_OF_ASC_NODE":"120.8489","EPHEMERIS_TYPE":"0","ECCENTRICITY":"0.00014110","INCLINATION":"53.0540","COUNTRY_CODE":"US","ARG_OF_PERICENTER":"78.7385","SITE":"AFETR","TLE_LINE2":"2 48439  53.0540 120.8489 0001411  78.7385 281.3763 15.06400653 39017","PERIAPSIS":"546.234","FILE":"3277432","TIME_SYSTEM":"UTC","RCS_SIZE":"LARGE","EPOCH":"2022-01-19T13:30:58.409856","OBJECT_TYPE":"PAYLOAD","ELEMENT_SET_NO":"999","REF_FRAME":"TEME"},{"EPHEMERIS_TYPE":"0","BSTAR":"0.00090261000000","SEMIMAJOR_AXIS":"6925.303","RA_OF_ASC_NODE":"119.9671","GP_ID":"194197333","INCLINATION":"53.0564","COUNTRY_CODE":"US","ECCENTRICITY":"0.00016260","FILE":"3277663","TIME_SYSTEM":"UTC","ARG_OF_PERICENTER":"64.8081","PERIAPSIS":"546.042","TLE_LINE2":"2 48440  53.0564 119.9671 0001626  64.8081 295.3077 15.06414970 39496","SITE":"AFETR","ELEMENT_SET_NO":"999","REF_FRAME":"TEME","RCS_SIZE":"LARGE","EPOCH":"2022-01-19T18:12:17.316864","OBJECT_TYPE":"PAYLOAD","REV_AT_EPOCH":"3949","OBJECT_ID":"2021-040N","MEAN_MOTION_DOT":"0.00013194","PERIOD":"95.591","CENTER_NAME":"EARTH","MEAN_MOTION_DDOT":"0.0000000000000","MEAN_ELEMENT_THEORY":"SGP4","CLASSIFICATION_TYPE":"U","LAUNCH_DATE":"2021-05-09","DECAY_DATE":null,"MEAN_MOTION":"15.06414970","NORAD_CAT_ID":"48440","OBJECT_NAME":"STARLINK-2682","TLE_LINE1":"1 48440U 21040N   22019.75853376  .00013194  00000-0  90261-3 0  9994","MEAN_ANOMALY":"295.3077","APOAPSIS":"548.294"}];
